[{"OBJECT_NAME":"RAPTOR4","OBJECT_ID":"2024-028B","EPOCH":"2026-03-09T13:25:37.970400","MEAN_MOTION":13.70164328,"ECCENTRICITY":0.0014524,"INCLINATION":39.9901,"RA_OF_ASC_NODE":141.9922,"ARG_OF_PERICENTER":23.3417,"MEAN_ANOMALY":336.7986,"EPHEMERIS_TYPE":0,"CLASSIFICATION_TYPE":"U","NORAD_CAT_ID":58956,"ELEMENT_SET_NO":999,"REV_AT_EPOCH":10338,"BSTAR":6.0683e-5,"MEAN_MOTION_DOT":-2.4e-7,"MEAN_MOTION_DDOT":0},{"OBJECT_NAME":"THORAD AGENA D DEB","OBJECT_ID":"1970-025QN","EPOCH":"2026-03-09T10:31:07.392000","MEAN_MOTION":13.70245737,"ECCENTRICITY":0.0004866,"INCLINATION":100.0929,"RA_OF_ASC_NODE":252.5326,"ARG_OF_PERICENTER":132.6415,"MEAN_ANOMALY":295.0725,"EPHEMERIS_TYPE":0,"CLASSIFICATION_TYPE":"U","NORAD_CAT_ID":22532,"ELEMENT_SET_NO":999,"REV_AT_EPOCH":63899,"BSTAR":0.0015316407,"MEAN_MOTION_DOT":1.302e-5,"MEAN_MOTION_DDOT":0}]
